start=new Date('2023-05-19T00:00:00.000Z').valueOf();
sats=[{"APOAPSIS":"547.923","ARG_OF_PERICENTER":"81.1055","LAUNCH_DATE":"2021-03-14","MEAN_ELEMENT_THEORY":"SGP4","GP_ID":"232114470","TLE_LINE1":"1 47908U 21021BA  23138.91589526  .00003861  00000-0  27792-3 0  9994","TLE_LINE2":"2 47908  53.0541 206.4970 0001032  81.1055 279.0051 15.06401758121434","SITE":"AFETR","EPHEMERIS_TYPE":"0","PERIOD":"95.592","RA_OF_ASC_NODE":"206.4970","PERIAPSIS":"546.493","DECAY_DATE":null,"CENTER_NAME":"EARTH","REF_FRAME":"TEME","BSTAR":"0.00027792000000","MEAN_MOTION_DDOT":"0.0000000000000","CLASSIFICATION_TYPE":"U","NORAD_CAT_ID":"47908","EPOCH":"2023-05-18T21:58:53.350464","FILE":"3911388","MEAN_MOTION":"15.06401758","ECCENTRICITY":"0.00010320","COUNTRY_CODE":"US","REV_AT_EPOCH":"12143","OBJECT_ID":"2021-021BA","MEAN_ANOMALY":"279.0051","MEAN_MOTION_DOT":"0.00003861","OBJECT_NAME":"STARLINK-2368","OBJECT_TYPE":"PAYLOAD","SEMIMAJOR_AXIS":"6925.343","RCS_SIZE":"LARGE","TIME_SYSTEM":"UTC","ELEMENT_SET_NO":"999","INCLINATION":"53.0541"},{"ARG_OF_PERICENTER":"88.3550","APOAPSIS":"548.033","LAUNCH_DATE":"2021-03-14","GP_ID":"232083992","MEAN_ELEMENT_THEORY":"SGP4","TLE_LINE2":"2 47909  53.0531 198.8080 0001148  88.3550 271.7570 15.06392024121662","TLE_LINE1":"1 47909U 21021BB  23138.40079035  .00000113  00000-0  26466-4 0  9993","EPHEMERIS_TYPE":"0","SITE":"AFETR","RA_OF_ASC_NODE":"198.8080","PERIOD":"95.593","DECAY_DATE":null,"PERIAPSIS":"546.443","BSTAR":"0.00002646600000","REF_FRAME":"TEME","CENTER_NAME":"EARTH","MEAN_MOTION_DDOT":"0.0000000000000","CLASSIFICATION_TYPE":"U","EPOCH":"2023-05-18T09:37:08.286240","NORAD_CAT_ID":"47909","MEAN_MOTION":"15.06392024","FILE":"3911221","ECCENTRICITY":"0.00011480","COUNTRY_CODE":"US","REV_AT_EPOCH":"12166","OBJECT_ID":"2021-021BB","MEAN_ANOMALY":"271.7570","MEAN_MOTION_DOT":"0.00000113","OBJECT_NAME":"STARLINK-2369","SEMIMAJOR_AXIS":"6925.373","OBJECT_TYPE":"PAYLOAD","RCS_SIZE":"LARGE","TIME_SYSTEM":"UTC","INCLINATION":"53.0531","ELEMENT_SET_NO":"999"},{"INCLINATION":"53.0530","ELEMENT_SET_NO":"999","TIME_SYSTEM":"UTC","SEMIMAJOR_AXIS":"6925.350","OBJECT_TYPE":"PAYLOAD","OBJECT_NAME":"STARLINK-2370","RCS_SIZE":"LARGE","MEAN_MOTION_DOT":"0.00004843","MEAN_ANOMALY":"283.4611","OBJECT_ID":"2021-021BC","REV_AT_EPOCH":"12155","MEAN_MOTION":"15.06399520","FILE":"3911388","EPOCH":"2023-05-18T15:15:28.361088","NORAD_CAT_ID":"47910","ECCENTRICITY":"0.00010250","COUNTRY_CODE":"US","DECAY_DATE":null,"PERIAPSIS":"546.505","CLASSIFICATION_TYPE":"U","MEAN_MOTION_DDOT":"0.0000000000000","BSTAR":"0.00034382000000","REF_FRAME":"TEME","CENTER_NAME":"EARTH","TLE_LINE1":"1 47910U 21021BC  23138.63574492  .00004843  00000-0  34382-3 0  9996","TLE_LINE2":"2 47910  53.0530 197.7532 0001025  76.6492 283.4611 15.06399520121554","GP_ID":"232112968","MEAN_ELEMENT_THEORY":"SGP4","RA_OF_ASC_NODE":"197.7532","PERIOD":"95.592","EPHEMERIS_TYPE":"0","SITE":"AFETR","ARG_OF_PERICENTER":"76.6492","APOAPSIS":"547.925","LAUNCH_DATE":"2021-03-14"},{"REV_AT_EPOCH":"12121","OBJECT_ID":"2021-021BD","MEAN_ANOMALY":"261.7814","MEAN_MOTION_DOT":"0.00001673","RCS_SIZE":"LARGE","OBJECT_NAME":"STARLINK-2371","SEMIMAJOR_AXIS":"6925.348","OBJECT_TYPE":"PAYLOAD","TIME_SYSTEM":"UTC","INCLINATION":"53.0541","ELEMENT_SET_NO":"999","LAUNCH_DATE":"2021-03-14","ARG_OF_PERICENTER":"98.3309","APOAPSIS":"548.028","EPHEMERIS_TYPE":"0","SITE":"AFETR","RA_OF_ASC_NODE":"211.7311","PERIOD":"95.592","GP_ID":"232114220","MEAN_ELEMENT_THEORY":"SGP4","TLE_LINE1":"1 47911U 21021BD  23138.91730661  .00001673  00000-0  13116-3 0  9990","TLE_LINE2":"2 47911  53.0541 211.7311 0001176  98.3309 261.7814 15.06400100121218","BSTAR":"0.00013116000000","REF_FRAME":"TEME","CENTER_NAME":"EARTH","MEAN_MOTION_DDOT":"0.0000000000000","CLASSIFICATION_TYPE":"U","DECAY_DATE":null,"PERIAPSIS":"546.399","ECCENTRICITY":"0.00011760","COUNTRY_CODE":"US","EPOCH":"2023-05-18T22:00:55.291104","NORAD_CAT_ID":"47911","MEAN_MOTION":"15.06400100","FILE":"3911388"},{"COUNTRY_CODE":"US","ECCENTRICITY":"0.00010530","MEAN_MOTION":"15.06395555","FILE":"3911388","EPOCH":"2023-05-18T21:27:00.833760","NORAD_CAT_ID":"47912","MEAN_MOTION_DDOT":"0.0000000000000","CLASSIFICATION_TYPE":"U","REF_FRAME":"TEME","BSTAR":"0.00016054000000","CENTER_NAME":"EARTH","DECAY_DATE":null,"PERIAPSIS":"546.498","RA_OF_ASC_NODE":"196.5803","PERIOD":"95.592","EPHEMERIS_TYPE":"0","SITE":"AFETR","TLE_LINE2":"2 47912  53.0532 196.5803 0001053  91.0787 269.0323 15.06395555121425","TLE_LINE1":"1 47912U 21021BE  23138.89375965  .00002110  00000-0  16054-3 0  9991","GP_ID":"232113970","MEAN_ELEMENT_THEORY":"SGP4","LAUNCH_DATE":"2021-03-14","ARG_OF_PERICENTER":"91.0787","APOAPSIS":"547.956","INCLINATION":"53.0532","ELEMENT_SET_NO":"999","TIME_SYSTEM":"UTC","RCS_SIZE":"LARGE","SEMIMAJOR_AXIS":"6925.362","OBJECT_TYPE":"PAYLOAD","OBJECT_NAME":"STARLINK-2372","MEAN_MOTION_DOT":"0.00002110","MEAN_ANOMALY":"269.0323","OBJECT_ID":"2021-021BE","REV_AT_EPOCH":"12142"},{"OBJECT_NAME":"STARLINK-2374","SEMIMAJOR_AXIS":"6925.365","OBJECT_TYPE":"PAYLOAD","RCS_SIZE":"LARGE","TIME_SYSTEM":"UTC","INCLINATION":"53.0541","ELEMENT_SET_NO":"999","REV_AT_EPOCH":"12144","MEAN_ANOMALY":"269.1874","OBJECT_ID":"2021-021BF","MEAN_MOTION_DOT":"0.00000784","DECAY_DATE":null,"PERIAPSIS":"546.382","REF_FRAME":"TEME","BSTAR":"0.00007151800000","CENTER_NAME":"EARTH","MEAN_MOTION_DDOT":"0.0000000000000","CLASSIFICATION_TYPE":"U","EPOCH":"2023-05-18T21:37:45.134112","NORAD_CAT_ID":"47913","MEAN_MOTION":"15.06394702","FILE":"3911388","ECCENTRICITY":"0.00012240","COUNTRY_CODE":"US","ARG_OF_PERICENTER":"90.9255","APOAPSIS":"548.077","LAUNCH_DATE":"2021-03-14","GP_ID":"232113219","MEAN_ELEMENT_THEORY":"SGP4","TLE_LINE1":"1 47913U 21021BF  23138.90121683  .00000784  00000-0  71518-4 0  9992","TLE_LINE2":"2 47913  53.0541 207.0349 0001224  90.9255 269.1874 15.06394702121444","EPHEMERIS_TYPE":"0","SITE":"AFETR","RA_OF_ASC_NODE":"207.0349","PERIOD":"95.592"},{"LAUNCH_DATE":"2021-03-14","ARG_OF_PERICENTER":"90.0468","APOAPSIS":"548.149","EPHEMERIS_TYPE":"0","SITE":"AFETR","RA_OF_ASC_NODE":"206.4729","PERIOD":"95.592","GP_ID":"232113469","MEAN_ELEMENT_THEORY":"SGP4","TLE_LINE1":"1 47914U 21021BG  23138.91959364 -.00000303  00000-0 -14819-5 0  9990","TLE_LINE2":"2 47914  53.0541 206.4729 0001328  90.0468 270.0674 15.06394864121440","REF_FRAME":"TEME","BSTAR":"-0.00000148190000","CENTER_NAME":"EARTH","MEAN_MOTION_DDOT":"0.0000000000000","CLASSIFICATION_TYPE":"U","DECAY_DATE":null,"PERIAPSIS":"546.310","ECCENTRICITY":"0.00013280","COUNTRY_CODE":"US","EPOCH":"2023-05-18T22:04:12.890496","NORAD_CAT_ID":"47914","MEAN_MOTION":"15.06394864","FILE":"3911388","REV_AT_EPOCH":"12144","OBJECT_ID":"2021-021BG","MEAN_ANOMALY":"270.0674","MEAN_MOTION_DOT":"-0.00000303","RCS_SIZE":"LARGE","OBJECT_NAME":"STARLINK-2375","SEMIMAJOR_AXIS":"6925.364","OBJECT_TYPE":"PAYLOAD","TIME_SYSTEM":"UTC","INCLINATION":"53.0541","ELEMENT_SET_NO":"999"},{"REV_AT_EPOCH":"12147","OBJECT_ID":"2021-021BH","MEAN_ANOMALY":"266.3719","MEAN_MOTION_DOT":"0.00000700","RCS_SIZE":"LARGE","OBJECT_NAME":"STARLINK-2376","SEMIMAJOR_AXIS":"6925.361","OBJECT_TYPE":"PAYLOAD","TIME_SYSTEM":"UTC","INCLINATION":"53.0530","ELEMENT_SET_NO":"999","LAUNCH_DATE":"2021-03-14","ARG_OF_PERICENTER":"93.7419","APOAPSIS":"548.132","EPHEMERIS_TYPE":"0","SITE":"AFETR","RA_OF_ASC_NODE":"202.9749","PERIOD":"95.592","GP_ID":"232082991","MEAN_ELEMENT_THEORY":"SGP4","TLE_LINE2":"2 47915  53.0530 202.9749 0001307  93.7419 266.3719 15.06395790121475","TLE_LINE1":"1 47915U 21021BH  23138.58647085  .00000700  00000-0  65903-4 0  9996","REF_FRAME":"TEME","BSTAR":"0.00006590300000","CENTER_NAME":"EARTH","MEAN_MOTION_DDOT":"0.0000000000000","CLASSIFICATION_TYPE":"U","DECAY_DATE":null,"PERIAPSIS":"546.321","ECCENTRICITY":"0.00013070","COUNTRY_CODE":"US","EPOCH":"2023-05-18T14:04:31.081440","NORAD_CAT_ID":"47915","MEAN_MOTION":"15.06395790","FILE":"3911221"},{"TIME_SYSTEM":"UTC","ELEMENT_SET_NO":"999","INCLINATION":"53.0530","RCS_SIZE":"LARGE","OBJECT_NAME":"STARLINK-2378","OBJECT_TYPE":"PAYLOAD","SEMIMAJOR_AXIS":"6925.344","OBJECT_ID":"2021-021BJ","MEAN_ANOMALY":"268.7104","MEAN_MOTION_DOT":"0.00002249","REV_AT_EPOCH":"12169","COUNTRY_CODE":"US","ECCENTRICITY":"0.00010910","NORAD_CAT_ID":"47916","EPOCH":"2023-05-18T19:48:50.760000","FILE":"3911388","MEAN_MOTION":"15.06401564","CENTER_NAME":"EARTH","BSTAR":"0.00016981000000","REF_FRAME":"TEME","MEAN_MOTION_DDOT":"0.0000000000000","CLASSIFICATION_TYPE":"U","PERIAPSIS":"546.453","DECAY_DATE":null,"SITE":"AFETR","EPHEMERIS_TYPE":"0","PERIOD":"95.592","RA_OF_ASC_NODE":"186.8993","MEAN_ELEMENT_THEORY":"SGP4","GP_ID":"232114471","TLE_LINE2":"2 47916  53.0530 186.8993 0001091  91.4010 268.7104 15.06401564121694","TLE_LINE1":"1 47916U 21021BJ  23138.82558750  .00002249  00000-0  16981-3 0  9995","LAUNCH_DATE":"2021-03-14","APOAPSIS":"547.964","ARG_OF_PERICENTER":"91.4010"},{"MEAN_ELEMENT_THEORY":"SGP4","GP_ID":"232112719","TLE_LINE1":"1 47917U 21021BK  23138.89838895  .00003616  00000-0  26146-3 0  9997","TLE_LINE2":"2 47917  53.0525 196.5763 0000997  88.2581 271.8522 15.06405862121552","SITE":"AFETR","EPHEMERIS_TYPE":"0","PERIOD":"95.592","RA_OF_ASC_NODE":"196.5763","APOAPSIS":"547.886","ARG_OF_PERICENTER":"88.2581","LAUNCH_DATE":"2021-03-14","NORAD_CAT_ID":"47917","EPOCH":"2023-05-18T21:33:40.805280","FILE":"3911388","MEAN_MOTION":"15.06405862","ECCENTRICITY":"0.00009970","COUNTRY_CODE":"US","PERIAPSIS":"546.505","DECAY_DATE":null,"CENTER_NAME":"EARTH","BSTAR":"0.00026146000000","REF_FRAME":"TEME","MEAN_MOTION_DDOT":"0.0000000000000","CLASSIFICATION_TYPE":"U","OBJECT_ID":"2021-021BK","MEAN_ANOMALY":"271.8522","MEAN_MOTION_DOT":"0.00003616","REV_AT_EPOCH":"12155","TIME_SYSTEM":"UTC","ELEMENT_SET_NO":"999","INCLINATION":"53.0525","OBJECT_NAME":"STARLINK-2397","OBJECT_TYPE":"PAYLOAD","SEMIMAJOR_AXIS":"6925.331","RCS_SIZE":"LARGE"}];
